{
  "norad_id": 62013,
  "name": "STARLINK-11377 [DTC]",
  "history": [
    {
      "epoch": "2026-03-28T21:33:20.869344",
      "apogee_km": 360.2431319970101,
      "perigee_km": 359.018340577908,
      "latitude_deg": 51.92409983477678,
      "longitude_deg": 107.5231881600339,
      "semi_major_axis_km": 6737.767736287458,
      "eccentricity": 9.089e-05,
      "inclination_deg": 53.1579,
      "raan_deg": 306.4625,
      "arg_perigee_deg": 82.0601,
      "mean_anomaly_deg": 278.052,
      "mean_motion_rev_day": 15.69743553
    }
  ]
}